<?xml version="1.0" encoding="UTF-8"?><gpx version="1.1" creator="Garmin Explore App" xmlns="http://www.topografix.com/GPX/1/1" xmlns:adv="http://www.garmin.com/xmlschemas/AdventuresExtensions/v1" xmlns:gpxtpx="http://www.garmin.com/xmlschemas/TrackPointExtension/v1" xmlns:gpxtrx="http://www.garmin.com/xmlschemas/GpxExtensions/v3" xmlns:gpxx="http://www.garmin.com/xmlschemas/GpxExtensions/v3" xmlns:trp="http://www.garmin.com/xmlschemas/TripExtensions/v1" xmlns:wptx1="http://www.garmin.com/xmlschemas/WaypointExtension/v1" xmlns:xsi="http://www.w3.org/2001/XMLSchema-instance" xsi:schemaLocation="http://www.topografix.com/GPX/1/1 http://www.topografix.com/GPX/1/1/gpx.xsd http://www.garmin.com/xmlschemas/WaypointExtension/v1 http://www8.garmin.com/xmlschemas/WaypointExtensionv1.xsd http://www.garmin.com/xmlschemas/TrackPointExtension/v1 http://www.garmin.com/xmlschemas/TrackPointExtensionv1.xsd http://www.garmin.com/xmlschemas/GpxExtensions/v3 http://www8.garmin.com/xmlschemas/GpxExtensionsv3.xsd http://www.garmin.com/xmlschemas/ActivityExtension/v1 http://www8.garmin.com/xmlschemas/ActivityExtensionv1.xsd http://www.garmin.com/xmlschemas/AdventuresExtensions/v1 http://www8.garmin.com/xmlschemas/AdventuresExtensionv1.xsd http://www.garmin.com/xmlschemas/PressureExtension/v1 http://www.garmin.com/xmlschemas/PressureExtensionv1.xsd"><metadata><name>Cimone e Cimoncino da doccia, verso i lagoni</name><link href="http://www.garmin.com"><text>Garmin International</text></link><time>2026-02-21T22:09:36.852Z</time></metadata><trk><name>2026-02-21 09:41:07</name><extensions><gpxx:TrackExtension xmlns:gpxx="http://www.garmin.com/xmlschemas/GpxExtensions/v3"><gpxx:DisplayColor>Cyan</gpxx:DisplayColor></gpxx:TrackExtension></extensions><trkseg><trkpt lat="44.19112907722592" lon="10.672739082947373"><ele>1358.0</ele><time>2026-02-21T08:41:20.000Z</time><extensions/></trkpt><trkpt lat="44.189235772937536" lon="10.674442537128925"><ele>1406.4000244140625</ele><time>2026-02-21T08:51:26.000Z</time><extensions/></trkpt><trkpt lat="44.189235772937536" lon="10.674442537128925"><ele>1406.4000244140625</ele><time>2026-02-21T08:51:27.000Z</time><extensions/></trkpt><trkpt lat="44.188357098028064" lon="10.677531184628606"><ele>1450.199951171875</ele><time>2026-02-21T09:01:35.000Z</time><extensions/></trkpt><trkpt lat="44.188357098028064" lon="10.677531184628606"><ele>1450.199951171875</ele><time>2026-02-21T09:01:36.000Z</time><extensions/></trkpt><trkpt lat="44.18834167532623" lon="10.677533950656652"><ele>1455.0</ele><time>2026-02-21T09:01:37.000Z</time><extensions/></trkpt><trkpt lat="44.188278056681156" lon="10.679513420909643"><ele>1494.5999755859375</ele><time>2026-02-21T09:08:10.000Z</time><extensions/></trkpt><trkpt lat="44.18799927458167" lon="10.681168343871832"><ele>1565.800048828125</ele><time>2026-02-21T09:11:43.000Z</time><extensions/></trkpt><trkpt lat="44.18799927458167" lon="10.681168343871832"><ele>1565.800048828125</ele><time>2026-02-21T09:11:44.000Z</time><extensions/></trkpt><trkpt lat="44.187295362353325" lon="10.68425145931542"><ele>1519.4000244140625</ele><time>2026-02-21T09:21:47.000Z</time><extensions/></trkpt><trkpt lat="44.187295362353325" lon="10.68425145931542"><ele>1519.4000244140625</ele><time>2026-02-21T09:21:48.000Z</time><extensions/></trkpt><trkpt lat="44.18487039394677" lon="10.687056630849838"><ele>1598.800048828125</ele><time>2026-02-21T09:31:57.000Z</time><extensions/></trkpt><trkpt lat="44.18487039394677" lon="10.687056630849838"><ele>1598.800048828125</ele><time>2026-02-21T09:31:58.000Z</time><extensions/></trkpt><trkpt lat="44.18387336656451" lon="10.689781252294779"><ele>1640.39990234375</ele><time>2026-02-21T09:41:13.000Z</time><extensions/></trkpt><trkpt lat="44.18388585560024" lon="10.68981016986072"><ele>1637.800048828125</ele><time>2026-02-21T09:41:18.000Z</time><extensions/></trkpt><trkpt lat="44.18396255001426" lon="10.689884684979916"><ele>1633.199951171875</ele><time>2026-02-21T09:41:31.000Z</time><extensions/></trkpt><trkpt lat="44.18395819142461" lon="10.689906729385257"><ele>1635.199951171875</ele><time>2026-02-21T09:41:32.000Z</time><extensions/></trkpt><trkpt lat="44.183935979381204" lon="10.689943358302116"><ele>1635.199951171875</ele><time>2026-02-21T09:41:33.000Z</time><extensions/></trkpt><trkpt lat="44.183910582214594" lon="10.690021561458707"><ele>1636.800048828125</ele><time>2026-02-21T09:41:36.000Z</time><extensions/></trkpt><trkpt lat="44.18382726609707" lon="10.690144272521138"><ele>1642.199951171875</ele><time>2026-02-21T09:41:44.000Z</time><extensions/></trkpt><trkpt lat="44.18382139876485" lon="10.6902342941612"><ele>1643.0</ele><time>2026-02-21T09:41:55.000Z</time><extensions/></trkpt><trkpt lat="44.183811424300075" lon="10.69026069715619"><ele>1642.60009765625</ele><time>2026-02-21T09:41:57.000Z</time><extensions/></trkpt><trkpt lat="44.18242547661066" lon="10.692381486296654"><ele>1622.0</ele><time>2026-02-21T09:51:05.000Z</time><extensions/></trkpt><trkpt lat="44.18262857012451" lon="10.692271683365107"><ele>1632.60009765625</ele><time>2026-02-21T09:51:08.000Z</time><extensions/></trkpt><trkpt lat="44.18261272832751" lon="10.692301020026207"><ele>1634.199951171875</ele><time>2026-02-21T09:51:10.000Z</time><extensions/></trkpt><trkpt lat="44.1826063580811" lon="10.692328764125705"><ele>1633.800048828125</ele><time>2026-02-21T09:51:12.000Z</time><extensions/></trkpt><trkpt lat="44.182580541819334" lon="10.692398333922029"><ele>1641.0</ele><time>2026-02-21T09:51:18.000Z</time><extensions/></trkpt><trkpt lat="44.18254273943603" lon="10.692415265366435"><ele>1644.199951171875</ele><time>2026-02-21T09:51:24.000Z</time><extensions/></trkpt><trkpt lat="44.18233696371317" lon="10.692496569827199"><ele>1643.60009765625</ele><time>2026-02-21T09:51:31.000Z</time><extensions/></trkpt><trkpt lat="44.18227384798229" lon="10.692502688616514"><ele>1646.199951171875</ele><time>2026-02-21T09:51:38.000Z</time><extensions/></trkpt><trkpt lat="44.182178964838386" lon="10.692542418837547"><ele>1647.199951171875</ele><time>2026-02-21T09:51:44.000Z</time><extensions/></trkpt><trkpt lat="44.18205315247178" lon="10.692586256191134"><ele>1647.199951171875</ele><time>2026-02-21T09:51:55.000Z</time><extensions/></trkpt><trkpt lat="44.18202037923038" lon="10.692592291161418"><ele>1647.800048828125</ele><time>2026-02-21T09:51:57.000Z</time><extensions/></trkpt><trkpt lat="44.18014694005251" lon="10.694684330374002"><ele>1665.800048828125</ele><time>2026-02-21T10:01:08.000Z</time><extensions/></trkpt><trkpt lat="44.180040154606104" lon="10.694766389206052"><ele>1663.800048828125</ele><time>2026-02-21T10:01:10.000Z</time><extensions/></trkpt><trkpt lat="44.18001366779208" lon="10.69487183354795"><ele>1662.39990234375</ele><time>2026-02-21T10:01:17.000Z</time><extensions/></trkpt><trkpt lat="44.17996237054467" lon="10.694944923743606"><ele>1662.199951171875</ele><time>2026-02-21T10:01:23.000Z</time><extensions/></trkpt><trkpt lat="44.179992796853185" lon="10.695048356428742"><ele>1658.60009765625</ele><time>2026-02-21T10:01:33.000Z</time><extensions/></trkpt><trkpt lat="44.18003663420677" lon="10.6951420661062"><ele>1659.800048828125</ele><time>2026-02-21T10:01:43.000Z</time><extensions/></trkpt><trkpt lat="44.180078795179725" lon="10.695254132151604"><ele>1664.199951171875</ele><time>2026-02-21T10:01:54.000Z</time><extensions/></trkpt><trkpt lat="44.18008524924517" lon="10.695301657542586"><ele>1665.39990234375</ele><time>2026-02-21T10:01:57.000Z</time><extensions/></trkpt><trkpt lat="44.180868454277515" lon="10.698098447173834"><ele>1764.39990234375</ele><time>2026-02-21T10:11:20.000Z</time><extensions/></trkpt><trkpt lat="44.18099619448185" lon="10.698085958138108"><ele>1748.800048828125</ele><time>2026-02-21T10:11:23.000Z</time><extensions/></trkpt><trkpt lat="44.18098982423544" lon="10.698092579841614"><ele>1744.800048828125</ele><time>2026-02-21T10:11:24.000Z</time><extensions/></trkpt><trkpt lat="44.18102016672492" lon="10.698101045563817"><ele>1737.39990234375</ele><time>2026-02-21T10:11:31.000Z</time><extensions/></trkpt><trkpt lat="44.180972473695874" lon="10.698123928159475"><ele>1739.60009765625</ele><time>2026-02-21T10:11:43.000Z</time><extensions/></trkpt><trkpt lat="44.180969540029764" lon="10.698122670874"><ele>1741.199951171875</ele><time>2026-02-21T10:11:56.000Z</time><extensions/></trkpt><trkpt lat="44.180968618020415" lon="10.698117557913065"><ele>1740.800048828125</ele><time>2026-02-21T10:11:57.000Z</time><extensions/></trkpt><trkpt lat="44.18141646310687" lon="10.699003273621202"><ele>1758.39990234375</ele><time>2026-02-21T10:21:21.000Z</time><extensions/></trkpt><trkpt lat="44.18142098933458" lon="10.699025569483638"><ele>1755.800048828125</ele><time>2026-02-21T10:21:25.000Z</time><extensions/></trkpt><trkpt lat="44.181420570239425" lon="10.699038226157427"><ele>1755.800048828125</ele><time>2026-02-21T10:21:26.000Z</time><extensions/></trkpt><trkpt lat="44.181445464491844" lon="10.699126655235887"><ele>1758.39990234375</ele><time>2026-02-21T10:21:37.000Z</time><extensions/></trkpt><trkpt lat="44.18145393021405" lon="10.69924064911902"><ele>1761.199951171875</ele><time>2026-02-21T10:21:46.000Z</time><extensions/></trkpt><trkpt lat="44.181452840566635" lon="10.699326731264591"><ele>1762.39990234375</ele><time>2026-02-21T10:21:52.000Z</time><extensions/></trkpt><trkpt lat="44.181465497240424" lon="10.699425302445889"><ele>1762.39990234375</ele><time>2026-02-21T10:21:57.000Z</time><extensions/></trkpt><trkpt lat="44.18038498610258" lon="10.702385539188981"><ele>1796.39990234375</ele><time>2026-02-21T10:31:31.000Z</time><extensions/></trkpt><trkpt lat="44.18037383817136" lon="10.702407248318195"><ele>1778.199951171875</ele><time>2026-02-21T10:31:37.000Z</time><extensions/></trkpt><trkpt lat="44.18039378710091" lon="10.702381348237395"><ele>1779.800048828125</ele><time>2026-02-21T10:31:38.000Z</time><extensions/></trkpt><trkpt lat="44.18048447929323" lon="10.702437590807676"><ele>1785.39990234375</ele><time>2026-02-21T10:31:48.000Z</time><extensions/></trkpt><trkpt lat="44.18052362278104" lon="10.702479416504502"><ele>1787.39990234375</ele><time>2026-02-21T10:31:56.000Z</time><extensions/></trkpt><trkpt lat="44.18053242377937" lon="10.70249106734991"><ele>1787.60009765625</ele><time>2026-02-21T10:31:57.000Z</time><extensions/></trkpt><trkpt lat="44.18103693053126" lon="10.704145655035973"><ele>1839.199951171875</ele><time>2026-02-21T10:41:32.000Z</time><extensions/></trkpt><trkpt lat="44.1810039896518" lon="10.704129477962852"><ele>1829.39990234375</ele><time>2026-02-21T10:41:36.000Z</time><extensions/></trkpt><trkpt lat="44.18098052032292" lon="10.70401556789875"><ele>1817.199951171875</ele><time>2026-02-21T10:41:44.000Z</time><extensions/></trkpt><trkpt lat="44.180998457595706" lon="10.704023698344827"><ele>1818.199951171875</ele><time>2026-02-21T10:41:57.000Z</time><extensions/></trkpt><trkpt lat="44.181003319099545" lon="10.704028056934476"><ele>1818.800048828125</ele><time>2026-02-21T10:41:57.000Z</time><extensions/></trkpt><trkpt lat="44.18187947943807" lon="10.705242427065969"><ele>1859.800048828125</ele><time>2026-02-21T10:51:31.000Z</time><extensions/></trkpt><trkpt lat="44.181904373690486" lon="10.705278050154448"><ele>1860.800048828125</ele><time>2026-02-21T10:51:34.000Z</time><extensions/></trkpt><trkpt lat="44.18198165483773" lon="10.705411825329065"><ele>1860.39990234375</ele><time>2026-02-21T10:51:42.000Z</time><extensions/></trkpt><trkpt lat="44.18203596957028" lon="10.705453483387828"><ele>1863.60009765625</ele><time>2026-02-21T10:51:54.000Z</time><extensions/></trkpt><trkpt lat="44.18205021880567" lon="10.705478880554438"><ele>1864.39990234375</ele><time>2026-02-21T10:51:57.000Z</time><extensions/></trkpt><trkpt lat="44.184132032096386" lon="10.70577316917479"><ele>1921.60009765625</ele><time>2026-02-21T11:01:32.000Z</time><extensions/></trkpt><trkpt lat="44.184155920520425" lon="10.70579705759883"><ele>1915.800048828125</ele><time>2026-02-21T11:01:35.000Z</time><extensions/></trkpt><trkpt lat="44.18418802320957" lon="10.705694044008851"><ele>1910.800048828125</ele><time>2026-02-21T11:01:45.000Z</time><extensions/></trkpt><trkpt lat="44.18424124829471" lon="10.705662528052926"><ele>1916.60009765625</ele><time>2026-02-21T11:01:55.000Z</time><extensions/></trkpt><trkpt lat="44.18425248004496" lon="10.705655822530389"><ele>1917.199951171875</ele><time>2026-02-21T11:01:57.000Z</time><extensions/></trkpt><trkpt lat="44.185991641134024" lon="10.704534742981195"><ele>1994.60009765625</ele><time>2026-02-21T11:11:32.000Z</time><extensions/></trkpt><trkpt lat="44.185969764366746" lon="10.704509178176522"><ele>1971.39990234375</ele><time>2026-02-21T11:11:36.000Z</time><extensions/></trkpt><trkpt lat="44.186026426032186" lon="10.704594841226935"><ele>1977.39990234375</ele><time>2026-02-21T11:11:44.000Z</time><extensions/></trkpt><trkpt lat="44.18608484789729" lon="10.704593751579523"><ele>1980.0</ele><time>2026-02-21T11:11:56.000Z</time><extensions/></trkpt><trkpt lat="44.186088033020496" lon="10.704592997208238"><ele>1979.800048828125</ele><time>2026-02-21T11:11:57.000Z</time><extensions/></trkpt><trkpt lat="44.18766114860773" lon="10.70483447983861"><ele>2050.60009765625</ele><time>2026-02-21T11:21:31.000Z</time><extensions/></trkpt><trkpt lat="44.18765276670456" lon="10.70474554784596"><ele>2048.39990234375</ele><time>2026-02-21T11:21:34.000Z</time><extensions/></trkpt><trkpt lat="44.18763021938503" lon="10.704669440165162"><ele>2037.800048828125</ele><time>2026-02-21T11:21:44.000Z</time><extensions/></trkpt><trkpt lat="44.18766877613962" lon="10.704659465700388"><ele>2040.199951171875</ele><time>2026-02-21T11:21:55.000Z</time><extensions/></trkpt><trkpt lat="44.18767053633928" lon="10.704657789319754"><ele>2040.39990234375</ele><time>2026-02-21T11:21:57.000Z</time><extensions/></trkpt><trkpt lat="44.18864627368748" lon="10.70436635054648"><ele>2066.0</ele><time>2026-02-21T11:31:31.000Z</time><extensions/></trkpt><trkpt lat="44.188612746074796" lon="10.704376325011253"><ele>2064.39990234375</ele><time>2026-02-21T11:31:34.000Z</time><extensions/></trkpt><trkpt lat="44.188556587323546" lon="10.704363752156496"><ele>2061.39990234375</ele><time>2026-02-21T11:31:46.000Z</time><extensions/></trkpt><trkpt lat="44.18856907635927" lon="10.704345144331455"><ele>2060.800048828125</ele><time>2026-02-21T11:31:57.000Z</time><extensions/></trkpt><trkpt lat="44.18865507468581" lon="10.704408679157495"><ele>2070.199951171875</ele><time>2026-02-21T11:41:37.000Z</time><extensions/></trkpt><trkpt lat="44.18863252736628" lon="10.704378420487046"><ele>2064.800048828125</ele><time>2026-02-21T11:41:48.000Z</time><extensions/></trkpt><trkpt lat="44.18863445520401" lon="10.70436048321426"><ele>2062.39990234375</ele><time>2026-02-21T11:41:57.000Z</time><extensions/></trkpt><trkpt lat="44.1907677333802" lon="10.703983549028635"><ele>2108.60009765625</ele><time>2026-02-21T11:51:31.000Z</time><extensions/></trkpt><trkpt lat="44.190766056999564" lon="10.703984051942825"><ele>2105.0</ele><time>2026-02-21T11:51:32.000Z</time><extensions/></trkpt><trkpt lat="44.19078039005399" lon="10.703966617584229"><ele>2107.60009765625</ele><time>2026-02-21T11:51:42.000Z</time><extensions/></trkpt><trkpt lat="44.19078684411943" lon="10.70396619848907"><ele>2114.60009765625</ele><time>2026-02-21T11:51:51.000Z</time><extensions/></trkpt><trkpt lat="44.19079665094614" lon="10.703952955082059"><ele>2113.39990234375</ele><time>2026-02-21T11:51:57.000Z</time><extensions/></trkpt><trkpt lat="44.19310846365988" lon="10.701254568994045"><ele>2156.0</ele><time>2026-02-21T12:01:33.000Z</time><extensions/></trkpt><trkpt lat="44.1931111458689" lon="10.701312152668834"><ele>2125.39990234375</ele><time>2026-02-21T12:01:35.000Z</time><extensions/></trkpt><trkpt lat="44.193098824471235" lon="10.701292036101222"><ele>2127.199951171875</ele><time>2026-02-21T12:01:43.000Z</time><extensions/></trkpt><trkpt lat="44.19311609119177" lon="10.701232189312577"><ele>2129.199951171875</ele><time>2026-02-21T12:01:51.000Z</time><extensions/></trkpt><trkpt lat="44.19314065016806" lon="10.701176952570677"><ele>2130.800048828125</ele><time>2026-02-21T12:01:57.000Z</time><extensions/></trkpt><trkpt lat="44.19368036091328" lon="10.699048787355423"><ele>2161.800048828125</ele><time>2026-02-21T12:11:31.000Z</time><extensions/></trkpt><trkpt lat="44.193667117506266" lon="10.699028335511684"><ele>2157.800048828125</ele><time>2026-02-21T12:11:40.000Z</time><extensions/></trkpt><trkpt lat="44.19365311972797" lon="10.699014253914356"><ele>2155.0</ele><time>2026-02-21T12:11:54.000Z</time><extensions/></trkpt><trkpt lat="44.19365697540343" lon="10.699008721858263"><ele>2154.800048828125</ele><time>2026-02-21T12:11:57.000Z</time><extensions/></trkpt><trkpt lat="44.193635769188404" lon="10.699039064347744"><ele>2162.0</ele><time>2026-02-21T12:21:32.000Z</time><extensions/></trkpt><trkpt lat="44.19363853521645" lon="10.699008889496326"><ele>2160.60009765625</ele><time>2026-02-21T12:21:35.000Z</time><extensions/></trkpt><trkpt lat="44.19362596236169" lon="10.699021546170115"><ele>2159.39990234375</ele><time>2026-02-21T12:21:40.000Z</time><extensions/></trkpt><trkpt lat="44.193625040352345" lon="10.699020456522703"><ele>2159.39990234375</ele><time>2026-02-21T12:21:49.000Z</time><extensions/></trkpt><trkpt lat="44.19364431872964" lon="10.699022049084306"><ele>2162.60009765625</ele><time>2026-02-21T12:21:57.000Z</time><extensions/></trkpt><trkpt lat="44.189844047650695" lon="10.698885256424546"><ele>1994.800048828125</ele><time>2026-02-21T12:31:32.000Z</time><extensions/></trkpt><trkpt lat="44.18978772126138" lon="10.698877880349755"><ele>1989.39990234375</ele><time>2026-02-21T12:31:34.000Z</time><extensions/></trkpt><trkpt lat="44.1897520981729" lon="10.698858685791492"><ele>1987.39990234375</ele><time>2026-02-21T12:31:35.000Z</time><extensions/></trkpt><trkpt lat="44.189657885581255" lon="10.698698591440916"><ele>1982.199951171875</ele><time>2026-02-21T12:31:39.000Z</time><extensions/></trkpt><trkpt lat="44.189589992165565" lon="10.698494324460626"><ele>1975.39990234375</ele><time>2026-02-21T12:31:45.000Z</time><extensions/></trkpt><trkpt lat="44.189572893083096" lon="10.698359124362469"><ele>1973.800048828125</ele><time>2026-02-21T12:31:51.000Z</time><extensions/></trkpt><trkpt lat="44.18958001770079" lon="10.698335822671652"><ele>1973.39990234375</ele><time>2026-02-21T12:31:54.000Z</time><extensions/></trkpt><trkpt lat="44.18958286754787" lon="10.698329620063305"><ele>1973.60009765625</ele><time>2026-02-21T12:31:56.000Z</time><extensions/></trkpt><trkpt lat="44.18958546593785" lon="10.698324758559465"><ele>1973.39990234375</ele><time>2026-02-21T12:31:57.000Z</time><extensions/></trkpt><trkpt lat="44.18958596885204" lon="10.6983229983598"><ele>1973.39990234375</ele><time>2026-02-21T12:31:57.000Z</time><extensions/></trkpt><trkpt lat="44.190633120015264" lon="10.686330338940024"><ele>1647.60009765625</ele><time>2026-02-21T12:41:31.000Z</time><extensions/></trkpt><trkpt lat="44.19062364846468" lon="10.686296476051211"><ele>1652.800048828125</ele><time>2026-02-21T12:41:32.000Z</time><extensions/></trkpt><trkpt lat="44.190654158592224" lon="10.686258673667908"><ele>1649.0</ele><time>2026-02-21T12:41:34.000Z</time><extensions/></trkpt><trkpt lat="44.19067092239857" lon="10.68624266423285"><ele>1648.199951171875</ele><time>2026-02-21T12:41:35.000Z</time><extensions/></trkpt><trkpt lat="44.190713753923774" lon="10.686167646199465"><ele>1648.0</ele><time>2026-02-21T12:41:38.000Z</time><extensions/></trkpt><trkpt lat="44.190708976238966" lon="10.686131436377764"><ele>1647.39990234375</ele><time>2026-02-21T12:41:39.000Z</time><extensions/></trkpt><trkpt lat="44.190713837742805" lon="10.686059519648552"><ele>1646.60009765625</ele><time>2026-02-21T12:41:44.000Z</time><extensions/></trkpt><trkpt lat="44.19072976335883" lon="10.686031272634864"><ele>1646.199951171875</ele><time>2026-02-21T12:41:45.000Z</time><extensions/></trkpt><trkpt lat="44.19081509113312" lon="10.68598659709096"><ele>1646.60009765625</ele><time>2026-02-21T12:41:48.000Z</time><extensions/></trkpt><trkpt lat="44.190964456647635" lon="10.685952063649893"><ele>1645.199951171875</ele><time>2026-02-21T12:41:53.000Z</time><extensions/></trkpt><trkpt lat="44.191023046150804" lon="10.685819126665592"><ele>1641.199951171875</ele><time>2026-02-21T12:41:57.000Z</time><extensions/></trkpt><trkpt lat="44.191023046150804" lon="10.685819126665592"><ele>1641.199951171875</ele><time>2026-02-21T12:41:58.000Z</time><extensions/></trkpt><trkpt lat="44.19050931930542" lon="10.678443470969796"><ele>1497.800048828125</ele><time>2026-02-21T12:51:32.000Z</time><extensions/></trkpt><trkpt lat="44.19049188494682" lon="10.678412290289998"><ele>1485.4000244140625</ele><time>2026-02-21T12:51:33.000Z</time><extensions/></trkpt><trkpt lat="44.190420638769865" lon="10.678362669423223"><ele>1499.800048828125</ele><time>2026-02-21T12:51:36.000Z</time><extensions/></trkpt><trkpt lat="44.19041125103831" lon="10.678372140973806"><ele>1499.199951171875</ele><time>2026-02-21T12:51:37.000Z</time><extensions/></trkpt><trkpt lat="44.19039398431778" lon="10.678355125710368"><ele>1498.4000244140625</ele><time>2026-02-21T12:51:45.000Z</time><extensions/></trkpt><trkpt lat="44.190409826114774" lon="10.678337272256613"><ele>1495.0</ele><time>2026-02-21T12:51:56.000Z</time><extensions/></trkpt><trkpt lat="44.190419632941484" lon="10.67830491811037"><ele>1495.0</ele><time>2026-02-21T12:51:57.000Z</time><extensions/></trkpt><trkpt lat="44.1907642967999" lon="10.673082070425153"><ele>1361.5999755859375</ele><time>2026-02-21T13:01:33.000Z</time><extensions/></trkpt><trkpt lat="44.190792459994555" lon="10.673092128708959"><ele>1361.4000244140625</ele><time>2026-02-21T13:01:34.000Z</time><extensions/></trkpt><trkpt lat="44.19088273309171" lon="10.673022223636508"><ele>1374.0</ele><time>2026-02-21T13:01:39.000Z</time><extensions/></trkpt><trkpt lat="44.19089471921325" lon="10.672989450395107"><ele>1375.199951171875</ele><time>2026-02-21T13:01:41.000Z</time><extensions/></trkpt><trkpt lat="44.19091491959989" lon="10.672845533117652"><ele>1375.800048828125</ele><time>2026-02-21T13:01:48.000Z</time><extensions/></trkpt><trkpt lat="44.19092263095081" lon="10.672748470678926"><ele>1375.4000244140625</ele><time>2026-02-21T13:01:53.000Z</time><extensions/></trkpt><trkpt lat="44.190928833559155" lon="10.672730365768075"><ele>1375.199951171875</ele><time>2026-02-21T13:01:54.000Z</time><extensions/></trkpt><trkpt lat="44.190942998975515" lon="10.67265392281115"><ele>1374.4000244140625</ele><time>2026-02-21T13:01:57.000Z</time><extensions/></trkpt></trkseg></trk></gpx>