<?xml version="1.0" encoding="UTF-8"?><gpx version="1.1" creator="Garmin Explore App" xmlns="http://www.topografix.com/GPX/1/1" xmlns:adv="http://www.garmin.com/xmlschemas/AdventuresExtensions/v1" xmlns:gpxtpx="http://www.garmin.com/xmlschemas/TrackPointExtension/v1" xmlns:gpxtrx="http://www.garmin.com/xmlschemas/GpxExtensions/v3" xmlns:gpxx="http://www.garmin.com/xmlschemas/GpxExtensions/v3" xmlns:trp="http://www.garmin.com/xmlschemas/TripExtensions/v1" xmlns:wptx1="http://www.garmin.com/xmlschemas/WaypointExtension/v1" xmlns:xsi="http://www.w3.org/2001/XMLSchema-instance" xsi:schemaLocation="http://www.topografix.com/GPX/1/1 http://www.topografix.com/GPX/1/1/gpx.xsd http://www.garmin.com/xmlschemas/WaypointExtension/v1 http://www8.garmin.com/xmlschemas/WaypointExtensionv1.xsd http://www.garmin.com/xmlschemas/TrackPointExtension/v1 http://www.garmin.com/xmlschemas/TrackPointExtensionv1.xsd http://www.garmin.com/xmlschemas/GpxExtensions/v3 http://www8.garmin.com/xmlschemas/GpxExtensionsv3.xsd http://www.garmin.com/xmlschemas/ActivityExtension/v1 http://www8.garmin.com/xmlschemas/ActivityExtensionv1.xsd http://www.garmin.com/xmlschemas/AdventuresExtensions/v1 http://www8.garmin.com/xmlschemas/AdventuresExtensionv1.xsd http://www.garmin.com/xmlschemas/PressureExtension/v1 http://www.garmin.com/xmlschemas/PressureExtensionv1.xsd"><metadata><name>2026-02-22 085353.gpx</name><link href="http://www.garmin.com"><text>Garmin International</text></link><time>2026-02-22T16:37:58.048Z</time></metadata><trk><name>cusna da monteorsaro, via spallone, con ripellata</name><extensions><gpxx:TrackExtension xmlns:gpxx="http://www.garmin.com/xmlschemas/GpxExtensions/v3"><gpxx:DisplayColor>Red</gpxx:DisplayColor></gpxx:TrackExtension></extensions><trkseg><trkpt lat="44.316855780780315" lon="10.4159318190068"><ele>1318.0</ele><time>2026-02-22T07:54:18.000Z</time><extensions/></trkpt><trkpt lat="44.31677573360503" lon="10.41621319949627"><ele>1303.5999755859375</ele><time>2026-02-22T08:03:58.000Z</time><extensions/></trkpt><trkpt lat="44.31685695424676" lon="10.416202638298273"><ele>1310.199951171875</ele><time>2026-02-22T08:04:03.000Z</time><extensions/></trkpt><trkpt lat="44.31684136390686" lon="10.416219737380743"><ele>1309.4000244140625</ele><time>2026-02-22T08:04:14.000Z</time><extensions/></trkpt><trkpt lat="44.316846979781985" lon="10.416231723502278"><ele>1310.199951171875</ele><time>2026-02-22T08:04:18.000Z</time><extensions/></trkpt><trkpt lat="44.31542188860476" lon="10.413972297683358"><ele>1339.0</ele><time>2026-02-22T08:13:59.000Z</time><extensions/></trkpt><trkpt lat="44.315482741221786" lon="10.414004735648632"><ele>1355.4000244140625</ele><time>2026-02-22T08:14:02.000Z</time><extensions/></trkpt><trkpt lat="44.31546748615801" lon="10.4139562882483"><ele>1363.5999755859375</ele><time>2026-02-22T08:14:09.000Z</time><extensions/></trkpt><trkpt lat="44.315448543056846" lon="10.413859561085701"><ele>1367.800048828125</ele><time>2026-02-22T08:14:16.000Z</time><extensions/></trkpt><trkpt lat="44.315453823655844" lon="10.413809353485703"><ele>1367.800048828125</ele><time>2026-02-22T08:14:18.000Z</time><extensions/></trkpt><trkpt lat="44.31400333531201" lon="10.410116286948323"><ele>1382.800048828125</ele><time>2026-02-22T08:23:55.000Z</time><extensions/></trkpt><trkpt lat="44.31400987319648" lon="10.410153167322278"><ele>1389.5999755859375</ele><time>2026-02-22T08:23:59.000Z</time><extensions/></trkpt><trkpt lat="44.31389093399048" lon="10.410125590860844"><ele>1376.800048828125</ele><time>2026-02-22T08:24:08.000Z</time><extensions/></trkpt><trkpt lat="44.313892191275954" lon="10.410075131803751"><ele>1394.4000244140625</ele><time>2026-02-22T08:24:19.000Z</time><extensions/></trkpt><trkpt lat="44.313891269266605" lon="10.410069851204753"><ele>1394.5999755859375</ele><time>2026-02-22T08:24:19.000Z</time><extensions/></trkpt><trkpt lat="44.31259073317051" lon="10.406339149922132"><ele>1431.4000244140625</ele><time>2026-02-22T08:33:57.000Z</time><extensions/></trkpt><trkpt lat="44.31256894022226" lon="10.40638005360961"><ele>1448.800048828125</ele><time>2026-02-22T08:34:02.000Z</time><extensions/></trkpt><trkpt lat="44.31247254833579" lon="10.406596390530467"><ele>1465.800048828125</ele><time>2026-02-22T08:34:12.000Z</time><extensions/></trkpt><trkpt lat="44.312534825876355" lon="10.406536376103759"><ele>1460.5999755859375</ele><time>2026-02-22T08:34:19.000Z</time><extensions/></trkpt><trkpt lat="44.311883049085736" lon="10.405108351260424"><ele>1485.800048828125</ele><time>2026-02-22T08:43:58.000Z</time><extensions/></trkpt><trkpt lat="44.31186469271779" lon="10.405043559148908"><ele>1480.4000244140625</ele><time>2026-02-22T08:44:05.000Z</time><extensions/></trkpt><trkpt lat="44.3118816241622" lon="10.405032075941563"><ele>1483.5999755859375</ele><time>2026-02-22T08:44:11.000Z</time><extensions/></trkpt><trkpt lat="44.31186653673649" lon="10.40491078980267"><ele>1472.0</ele><time>2026-02-22T08:44:19.000Z</time><extensions/></trkpt><trkpt lat="44.31025528348982" lon="10.403901357203722"><ele>1536.800048828125</ele><time>2026-02-22T08:53:00.000Z</time><extensions/></trkpt><trkpt lat="44.31026358157396" lon="10.403884761035442"><ele>1532.800048828125</ele><time>2026-02-22T08:53:01.000Z</time><extensions/></trkpt><trkpt lat="44.310225024819374" lon="10.40379909798503"><ele>1525.800048828125</ele><time>2026-02-22T08:53:09.000Z</time><extensions/></trkpt><trkpt lat="44.31014338508248" lon="10.403717122972012"><ele>1521.4000244140625</ele><time>2026-02-22T08:53:19.000Z</time><extensions/></trkpt><trkpt lat="44.30995613336563" lon="10.403386289253831"><ele>1514.5999755859375</ele><time>2026-02-22T08:54:00.000Z</time><extensions/></trkpt><trkpt lat="44.30996485054493" lon="10.4034673422575"><ele>1524.4000244140625</ele><time>2026-02-22T08:54:08.000Z</time><extensions/></trkpt><trkpt lat="44.309929478913546" lon="10.403416380286217"><ele>1522.0</ele><time>2026-02-22T08:54:18.000Z</time><extensions/></trkpt><trkpt lat="44.30991833098233" lon="10.40340045467019"><ele>1523.0</ele><time>2026-02-22T08:54:19.000Z</time><extensions/></trkpt><trkpt lat="44.308049669489264" lon="10.400370983406901"><ele>1581.800048828125</ele><time>2026-02-22T09:03:54.000Z</time><extensions/></trkpt><trkpt lat="44.308038018643856" lon="10.400382047519088"><ele>1585.0</ele><time>2026-02-22T09:04:00.000Z</time><extensions/></trkpt><trkpt lat="44.30801094509661" lon="10.400338461622596"><ele>1586.39990234375</ele><time>2026-02-22T09:04:10.000Z</time><extensions/></trkpt><trkpt lat="44.307973980903625" lon="10.400277273729444"><ele>1587.0</ele><time>2026-02-22T09:04:19.000Z</time><extensions/></trkpt><trkpt lat="44.304834036156535" lon="10.399665059521794"><ele>1715.800048828125</ele><time>2026-02-22T09:14:02.000Z</time><extensions/></trkpt><trkpt lat="44.304854571819305" lon="10.399308074265718"><ele>1676.39990234375</ele><time>2026-02-22T09:14:16.000Z</time><extensions/></trkpt><trkpt lat="44.30485348217189" lon="10.399308744817972"><ele>1675.60009765625</ele><time>2026-02-22T09:14:19.000Z</time><extensions/></trkpt><trkpt lat="44.30198117159307" lon="10.400658566504717"><ele>1590.800048828125</ele><time>2026-02-22T09:23:56.000Z</time><extensions/></trkpt><trkpt lat="44.30210866034031" lon="10.400591846555471"><ele>1582.199951171875</ele><time>2026-02-22T09:23:59.000Z</time><extensions/></trkpt><trkpt lat="44.302090387791395" lon="10.400564018636942"><ele>1587.199951171875</ele><time>2026-02-22T09:24:04.000Z</time><extensions/></trkpt><trkpt lat="44.30201042443514" lon="10.400557648390532"><ele>1591.0</ele><time>2026-02-22T09:24:14.000Z</time><extensions/></trkpt><trkpt lat="44.30194068700075" lon="10.400561923161149"><ele>1585.0</ele><time>2026-02-22T09:24:19.000Z</time><extensions/></trkpt><trkpt lat="44.30005903355777" lon="10.40030979551375"><ele>1593.199951171875</ele><time>2026-02-22T09:33:57.000Z</time><extensions/></trkpt><trkpt lat="44.29999818094075" lon="10.400312142446637"><ele>1618.800048828125</ele><time>2026-02-22T09:33:59.000Z</time><extensions/></trkpt><trkpt lat="44.299987871199846" lon="10.400301581248641"><ele>1630.60009765625</ele><time>2026-02-22T09:34:07.000Z</time><extensions/></trkpt><trkpt lat="44.29994562640786" lon="10.400245087221265"><ele>1632.60009765625</ele><time>2026-02-22T09:34:16.000Z</time><extensions/></trkpt><trkpt lat="44.29993079043925" lon="10.400232095271349"><ele>1633.800048828125</ele><time>2026-02-22T09:34:19.000Z</time><extensions/></trkpt><trkpt lat="44.29813798516989" lon="10.398846147581935"><ele>1723.199951171875</ele><time>2026-02-22T09:43:58.000Z</time><extensions/></trkpt><trkpt lat="44.29807595908642" lon="10.398891242220998"><ele>1715.60009765625</ele><time>2026-02-22T09:44:02.000Z</time><extensions/></trkpt><trkpt lat="44.29803983308375" lon="10.398813039064407"><ele>1718.60009765625</ele><time>2026-02-22T09:44:13.000Z</time><extensions/></trkpt><trkpt lat="44.297995660454035" lon="10.398726118728518"><ele>1716.800048828125</ele><time>2026-02-22T09:44:19.000Z</time><extensions/></trkpt><trkpt lat="44.295761128887534" lon="10.39801374077797"><ele>1752.800048828125</ele><time>2026-02-22T09:53:55.000Z</time><extensions/></trkpt><trkpt lat="44.2957784794271" lon="10.398004688322544"><ele>1766.199951171875</ele><time>2026-02-22T09:53:56.000Z</time><extensions/></trkpt><trkpt lat="44.29578476585448" lon="10.397966466844082"><ele>1769.800048828125</ele><time>2026-02-22T09:54:04.000Z</time><extensions/></trkpt><trkpt lat="44.29577428847551" lon="10.397947188466787"><ele>1768.800048828125</ele><time>2026-02-22T09:54:16.000Z</time><extensions/></trkpt><trkpt lat="44.29576808586717" lon="10.397943248972297"><ele>1769.0</ele><time>2026-02-22T09:54:20.000Z</time><extensions/></trkpt><trkpt lat="44.29472931660712" lon="10.397555083036423"><ele>1834.39990234375</ele><time>2026-02-22T10:03:54.000Z</time><extensions/></trkpt><trkpt lat="44.29466745816171" lon="10.39735509082675"><ele>1824.60009765625</ele><time>2026-02-22T10:03:57.000Z</time><extensions/></trkpt><trkpt lat="44.29463761858642" lon="10.397281665354967"><ele>1823.60009765625</ele><time>2026-02-22T10:04:06.000Z</time><extensions/></trkpt><trkpt lat="44.29460828192532" lon="10.397274792194366"><ele>1820.60009765625</ele><time>2026-02-22T10:04:16.000Z</time><extensions/></trkpt><trkpt lat="44.29458724334836" lon="10.397276217117906"><ele>1820.39990234375</ele><time>2026-02-22T10:04:19.000Z</time><extensions/></trkpt><trkpt lat="44.293317720294" lon="10.396640533581376"><ele>1888.800048828125</ele><time>2026-02-22T10:13:54.000Z</time><extensions/></trkpt><trkpt lat="44.29333699867129" lon="10.39652687497437"><ele>1892.800048828125</ele><time>2026-02-22T10:13:57.000Z</time><extensions/></trkpt><trkpt lat="44.29331889376044" lon="10.396534251049161"><ele>1888.800048828125</ele><time>2026-02-22T10:14:08.000Z</time><extensions/></trkpt><trkpt lat="44.29326902143657" lon="10.396503824740648"><ele>1887.39990234375</ele><time>2026-02-22T10:14:19.000Z</time><extensions/></trkpt><trkpt lat="44.29326541721821" lon="10.396502818912268"><ele>1887.60009765625</ele><time>2026-02-22T10:14:19.000Z</time><extensions/></trkpt><trkpt lat="44.29186639375985" lon="10.394840771332383"><ele>1983.800048828125</ele><time>2026-02-22T10:23:57.000Z</time><extensions/></trkpt><trkpt lat="44.29147948510945" lon="10.394469033926725"><ele>1948.0</ele><time>2026-02-22T10:24:03.000Z</time><extensions/></trkpt><trkpt lat="44.29143807850778" lon="10.394416730850935"><ele>1945.60009765625</ele><time>2026-02-22T10:24:15.000Z</time><extensions/></trkpt><trkpt lat="44.29144939407706" lon="10.394425364211202"><ele>1942.39990234375</ele><time>2026-02-22T10:24:19.000Z</time><extensions/></trkpt><trkpt lat="44.29140136577189" lon="10.39432754740119"><ele>1956.60009765625</ele><time>2026-02-22T10:33:56.000Z</time><extensions/></trkpt><trkpt lat="44.29141846485436" lon="10.394361577928066"><ele>1955.60009765625</ele><time>2026-02-22T10:33:58.000Z</time><extensions/></trkpt><trkpt lat="44.291429026052356" lon="10.394392255693674"><ele>1957.199951171875</ele><time>2026-02-22T10:34:05.000Z</time><extensions/></trkpt><trkpt lat="44.29144226945937" lon="10.394408935680985"><ele>1957.0</ele><time>2026-02-22T10:34:17.000Z</time><extensions/></trkpt><trkpt lat="44.291440173983574" lon="10.39441597647965"><ele>1957.39990234375</ele><time>2026-02-22T10:34:19.000Z</time><extensions/></trkpt><trkpt lat="44.28968986496329" lon="10.392298623919487"><ele>2023.0</ele><time>2026-02-22T10:43:55.000Z</time><extensions/></trkpt><trkpt lat="44.28978885523975" lon="10.391939543187618"><ele>2017.39990234375</ele><time>2026-02-22T10:43:57.000Z</time><extensions/></trkpt><trkpt lat="44.289667988196015" lon="10.39198698475957"><ele>2018.39990234375</ele><time>2026-02-22T10:44:03.000Z</time><extensions/></trkpt><trkpt lat="44.28970545530319" lon="10.391849353909492"><ele>2029.60009765625</ele><time>2026-02-22T10:44:12.000Z</time><extensions/></trkpt><trkpt lat="44.28969472646713" lon="10.391803588718176"><ele>2031.0</ele><time>2026-02-22T10:44:19.000Z</time><extensions/></trkpt><trkpt lat="44.28813845850527" lon="10.390050848945975"><ele>2106.60009765625</ele><time>2026-02-22T10:53:55.000Z</time><extensions/></trkpt><trkpt lat="44.2881213594228" lon="10.389993852004409"><ele>2110.60009765625</ele><time>2026-02-22T10:53:56.000Z</time><extensions/></trkpt><trkpt lat="44.28820509463549" lon="10.390197448432446"><ele>2096.199951171875</ele><time>2026-02-22T10:54:02.000Z</time><extensions/></trkpt><trkpt lat="44.28819688037038" lon="10.390215637162328"><ele>2094.60009765625</ele><time>2026-02-22T10:54:11.000Z</time><extensions/></trkpt><trkpt lat="44.2881871573627" lon="10.390307921916246"><ele>2094.39990234375</ele><time>2026-02-22T10:54:19.000Z</time><extensions/></trkpt><trkpt lat="44.2881871573627" lon="10.390307921916246"><ele>2094.39990234375</ele><time>2026-02-22T10:54:20.000Z</time><extensions/></trkpt><trkpt lat="44.287918182089925" lon="10.391727648675442"><ele>2120.39990234375</ele><time>2026-02-22T11:03:56.000Z</time><extensions/></trkpt><trkpt lat="44.28786805830896" lon="10.391727145761251"><ele>2119.60009765625</ele><time>2026-02-22T11:04:01.000Z</time><extensions/></trkpt><trkpt lat="44.287890354171395" lon="10.39168213494122"><ele>2120.39990234375</ele><time>2026-02-22T11:04:15.000Z</time><extensions/></trkpt><trkpt lat="44.28789756260812" lon="10.391667634248734"><ele>2120.39990234375</ele><time>2026-02-22T11:04:19.000Z</time><extensions/></trkpt><trkpt lat="44.28779932670295" lon="10.391617845743895"><ele>2113.0</ele><time>2026-02-22T11:14:00.000Z</time><extensions/></trkpt><trkpt lat="44.28782648406923" lon="10.391616839915514"><ele>2121.0</ele><time>2026-02-22T11:14:10.000Z</time><extensions/></trkpt><trkpt lat="44.28780016489327" lon="10.39163033477962"><ele>2127.0</ele><time>2026-02-22T11:14:19.000Z</time><extensions/></trkpt><trkpt lat="44.29006587713957" lon="10.391115853562951"><ele>2063.60009765625</ele><time>2026-02-22T11:23:56.000Z</time><extensions/></trkpt><trkpt lat="44.29003922268748" lon="10.39105273783207"><ele>2057.800048828125</ele><time>2026-02-22T11:23:57.000Z</time><extensions/></trkpt><trkpt lat="44.28989723324776" lon="10.390309765934944"><ele>2120.39990234375</ele><time>2026-02-22T11:24:00.000Z</time><extensions/></trkpt><trkpt lat="44.289921121671796" lon="10.390362571924925"><ele>2120.199951171875</ele><time>2026-02-22T11:24:01.000Z</time><extensions/></trkpt><trkpt lat="44.289983147755265" lon="10.390994986519217"><ele>2033.0</ele><time>2026-02-22T11:24:05.000Z</time><extensions/></trkpt><trkpt lat="44.28997116163373" lon="10.391005631536245"><ele>2029.0</ele><time>2026-02-22T11:24:08.000Z</time><extensions/></trkpt><trkpt lat="44.289977783337235" lon="10.390984592959285"><ele>2024.0</ele><time>2026-02-22T11:24:16.000Z</time><extensions/></trkpt><trkpt lat="44.289974849671125" lon="10.390968834981322"><ele>2021.39990234375</ele><time>2026-02-22T11:24:19.000Z</time><extensions/></trkpt><trkpt lat="44.29301664233208" lon="10.396349932998419"><ele>1920.199951171875</ele><time>2026-02-22T11:33:55.000Z</time><extensions/></trkpt><trkpt lat="44.29302955046296" lon="10.396268293261528"><ele>1926.199951171875</ele><time>2026-02-22T11:33:56.000Z</time><extensions/></trkpt><trkpt lat="44.29309635423124" lon="10.3963284753263"><ele>1911.0</ele><time>2026-02-22T11:34:00.000Z</time><extensions/></trkpt><trkpt lat="44.29315117187798" lon="10.39638128131628"><ele>1909.60009765625</ele><time>2026-02-22T11:34:03.000Z</time><extensions/></trkpt><trkpt lat="44.29317212663591" lon="10.396386981010437"><ele>1909.60009765625</ele><time>2026-02-22T11:34:04.000Z</time><extensions/></trkpt><trkpt lat="44.29318679496646" lon="10.396398967131972"><ele>1909.60009765625</ele><time>2026-02-22T11:34:05.000Z</time><extensions/></trkpt><trkpt lat="44.29322116076946" lon="10.396431656554341"><ele>1909.199951171875</ele><time>2026-02-22T11:34:07.000Z</time><extensions/></trkpt><trkpt lat="44.29326876997948" lon="10.396424029022455"><ele>1914.800048828125</ele><time>2026-02-22T11:34:11.000Z</time><extensions/></trkpt><trkpt lat="44.29324261844158" lon="10.396402655169368"><ele>1906.0</ele><time>2026-02-22T11:34:20.000Z</time><extensions/></trkpt><trkpt lat="44.30156819522381" lon="10.401531122624874"><ele>1647.800048828125</ele><time>2026-02-22T11:43:56.000Z</time><extensions/></trkpt><trkpt lat="44.30154103785753" lon="10.401518298313022"><ele>1638.60009765625</ele><time>2026-02-22T11:43:57.000Z</time><extensions/></trkpt><trkpt lat="44.30131413973868" lon="10.40142534300685"><ele>1570.199951171875</ele><time>2026-02-22T11:44:04.000Z</time><extensions/></trkpt><trkpt lat="44.30127038620412" lon="10.401394749060273"><ele>1562.60009765625</ele><time>2026-02-22T11:44:15.000Z</time><extensions/></trkpt><trkpt lat="44.3012576457113" lon="10.401399191468954"><ele>1562.39990234375</ele><time>2026-02-22T11:44:20.000Z</time><extensions/></trkpt><trkpt lat="44.300389029085636" lon="10.401013372465968"><ele>1623.800048828125</ele><time>2026-02-22T11:53:56.000Z</time><extensions/></trkpt><trkpt lat="44.30035147815943" lon="10.400944640859962"><ele>1619.60009765625</ele><time>2026-02-22T11:54:00.000Z</time><extensions/></trkpt><trkpt lat="44.300368996337056" lon="10.400839447975159"><ele>1624.60009765625</ele><time>2026-02-22T11:54:11.000Z</time><extensions/></trkpt><trkpt lat="44.30037293583155" lon="10.400784546509385"><ele>1623.60009765625</ele><time>2026-02-22T11:54:20.000Z</time><extensions/></trkpt><trkpt lat="44.29809079505503" lon="10.399076147004962"><ele>1700.199951171875</ele><time>2026-02-22T12:03:55.000Z</time><extensions/></trkpt><trkpt lat="44.29800605401397" lon="10.3990706987679"><ele>1710.60009765625</ele><time>2026-02-22T12:04:05.000Z</time><extensions/></trkpt><trkpt lat="44.29796406067908" lon="10.398992747068405"><ele>1709.60009765625</ele><time>2026-02-22T12:04:15.000Z</time><extensions/></trkpt><trkpt lat="44.297954086214304" lon="10.398937342688441"><ele>1709.800048828125</ele><time>2026-02-22T12:04:20.000Z</time><extensions/></trkpt><trkpt lat="44.29887995123863" lon="10.399667071178555"><ele>1664.199951171875</ele><time>2026-02-22T12:13:55.000Z</time><extensions/></trkpt><trkpt lat="44.298983216285706" lon="10.399586018174887"><ele>1674.39990234375</ele><time>2026-02-22T12:13:57.000Z</time><extensions/></trkpt><trkpt lat="44.29906175471842" lon="10.399603452533484"><ele>1677.0</ele><time>2026-02-22T12:13:59.000Z</time><extensions/></trkpt><trkpt lat="44.29916233755648" lon="10.399628933519125"><ele>1673.800048828125</ele><time>2026-02-22T12:14:01.000Z</time><extensions/></trkpt><trkpt lat="44.29919586516917" lon="10.399606050923467"><ele>1674.0</ele><time>2026-02-22T12:14:02.000Z</time><extensions/></trkpt><trkpt lat="44.29921614937484" lon="10.399558860808611"><ele>1674.39990234375</ele><time>2026-02-22T12:14:06.000Z</time><extensions/></trkpt><trkpt lat="44.29922075942159" lon="10.399514771997929"><ele>1667.800048828125</ele><time>2026-02-22T12:14:17.000Z</time><extensions/></trkpt><trkpt lat="44.29923132061958" lon="10.399520387873054"><ele>1668.39990234375</ele><time>2026-02-22T12:14:20.000Z</time><extensions/></trkpt><trkpt lat="44.30145872756839" lon="10.400546165183187"><ele>1563.199951171875</ele><time>2026-02-22T12:23:57.000Z</time><extensions/></trkpt><trkpt lat="44.30142327211797" lon="10.40070315822959"><ele>1582.60009765625</ele><time>2026-02-22T12:24:02.000Z</time><extensions/></trkpt><trkpt lat="44.30139963515103" lon="10.400761999189854"><ele>1595.800048828125</ele><time>2026-02-22T12:24:12.000Z</time><extensions/></trkpt><trkpt lat="44.30138303898275" lon="10.400685053318739"><ele>1593.199951171875</ele><time>2026-02-22T12:24:20.000Z</time><extensions/></trkpt><trkpt lat="44.3030605930835" lon="10.400686645880342"><ele>1621.800048828125</ele><time>2026-02-22T12:33:54.000Z</time><extensions/></trkpt><trkpt lat="44.30306654423475" lon="10.400649094954133"><ele>1627.39990234375</ele><time>2026-02-22T12:33:59.000Z</time><extensions/></trkpt><trkpt lat="44.303111135959625" lon="10.400548595935106"><ele>1626.800048828125</ele><time>2026-02-22T12:34:06.000Z</time><extensions/></trkpt><trkpt lat="44.30313393473625" lon="10.400442145764828"><ele>1624.199951171875</ele><time>2026-02-22T12:34:15.000Z</time><extensions/></trkpt><trkpt lat="44.30314742960036" lon="10.400406522676349"><ele>1625.199951171875</ele><time>2026-02-22T12:34:20.000Z</time><extensions/></trkpt><trkpt lat="44.30446531623602" lon="10.39888747036457"><ele>1704.60009765625</ele><time>2026-02-22T12:43:56.000Z</time><extensions/></trkpt><trkpt lat="44.30445693433285" lon="10.398904150351882"><ele>1654.199951171875</ele><time>2026-02-22T12:43:57.000Z</time><extensions/></trkpt><trkpt lat="44.30453362874687" lon="10.398884620517492"><ele>1650.800048828125</ele><time>2026-02-22T12:44:04.000Z</time><extensions/></trkpt><trkpt lat="44.30451761931181" lon="10.398900881409645"><ele>1650.39990234375</ele><time>2026-02-22T12:44:18.000Z</time><extensions/></trkpt><trkpt lat="44.30451376363635" lon="10.398894846439362"><ele>1649.39990234375</ele><time>2026-02-22T12:44:20.000Z</time><extensions/></trkpt><trkpt lat="44.307721350342035" lon="10.39997854270041"><ele>1591.199951171875</ele><time>2026-02-22T12:53:56.000Z</time><extensions/></trkpt><trkpt lat="44.30773031897843" lon="10.40003034286201"><ele>1593.800048828125</ele><time>2026-02-22T12:53:57.000Z</time><extensions/></trkpt><trkpt lat="44.30775546468794" lon="10.400072084739804"><ele>1596.60009765625</ele><time>2026-02-22T12:53:58.000Z</time><extensions/></trkpt><trkpt lat="44.307854790240526" lon="10.400078035891056"><ele>1607.0</ele><time>2026-02-22T12:54:00.000Z</time><extensions/></trkpt><trkpt lat="44.30786778219044" lon="10.400082478299737"><ele>1606.199951171875</ele><time>2026-02-22T12:54:01.000Z</time><extensions/></trkpt><trkpt lat="44.307920252904296" lon="10.400109132751822"><ele>1602.199951171875</ele><time>2026-02-22T12:54:04.000Z</time><extensions/></trkpt><trkpt lat="44.307928970083594" lon="10.400156825780869"><ele>1600.60009765625</ele><time>2026-02-22T12:54:05.000Z</time><extensions/></trkpt><trkpt lat="44.30791715160012" lon="10.40022924542427"><ele>1601.0</ele><time>2026-02-22T12:54:09.000Z</time><extensions/></trkpt><trkpt lat="44.3079112842679" lon="10.400231759995222"><ele>1599.0</ele><time>2026-02-22T12:54:20.000Z</time><extensions/></trkpt><trkpt lat="44.3126636557281" lon="10.40551663376391"><ele>1476.800048828125</ele><time>2026-02-22T13:03:56.000Z</time><extensions/></trkpt><trkpt lat="44.31274948641658" lon="10.405522249639034"><ele>1479.5999755859375</ele><time>2026-02-22T13:03:57.000Z</time><extensions/></trkpt><trkpt lat="44.31275887414813" lon="10.405644960701466"><ele>1451.4000244140625</ele><time>2026-02-22T13:04:07.000Z</time><extensions/></trkpt><trkpt lat="44.312780667096376" lon="10.405675554648042"><ele>1453.5999755859375</ele><time>2026-02-22T13:04:19.000Z</time><extensions/></trkpt><trkpt lat="44.3128037173301" lon="10.405709333717823"><ele>1454.199951171875</ele><time>2026-02-22T13:04:20.000Z</time><extensions/></trkpt><trkpt lat="44.31393736973405" lon="10.410979371517897"><ele>1369.4000244140625</ele><time>2026-02-22T13:13:57.000Z</time><extensions/></trkpt><trkpt lat="44.31407433003187" lon="10.41088038124144"><ele>1385.4000244140625</ele><time>2026-02-22T13:13:58.000Z</time><extensions/></trkpt><trkpt lat="44.314100397750735" lon="10.410879794508219"><ele>1382.800048828125</ele><time>2026-02-22T13:14:01.000Z</time><extensions/></trkpt><trkpt lat="44.3140987213701" lon="10.410963026806712"><ele>1379.0</ele><time>2026-02-22T13:14:09.000Z</time><extensions/></trkpt><trkpt lat="44.3141092825681" lon="10.411087162792683"><ele>1372.5999755859375</ele><time>2026-02-22T13:14:19.000Z</time><extensions/></trkpt><trkpt lat="44.31411565281451" lon="10.411114236339927"><ele>1371.800048828125</ele><time>2026-02-22T13:14:20.000Z</time><extensions/></trkpt></trkseg></trk></gpx>
